[
    {
        "Altitude(m)": 607895.8254730561,
        "Argument of Periapsis(deg)": 0.0,
        "Eccentricity": 0.0,
        "Inclination(deg)": 60.0,
        "Latitude(deg)": 40.998361500314545,
        "Longitude(deg)": 15.08855916882242,
        "Mean Anomaly(deg)": -229.09089999999998,
        "RAAN(deg)": 325.0,
        "Satellite Name": "Test1 1438",
        "Satellite Number": 1438,
        "Semi-Major Axis(m)": 6980739.136638005,
        "Time(s)": 0
    },
    {
        "Altitude(m)": 607795.138615878,
        "Argument of Periapsis(deg)": 0.00010418945913296404,
        "Eccentricity": 0.0,
        "Inclination(deg)": 60.0,
        "Latitude(deg)": 40.53068662829084,
        "Longitude(deg)": 15.585154582848624,
        "Mean Anomaly(deg)": -228.47079385453813,
        "RAAN(deg)": 324.99957995086027,
        "Satellite Name": "Test1 1438",
        "Satellite Number": 1438,
        "Semi-Major Axis(m)": 6980739.136638005,
        "Time(s)": 10
    }
]